SARSAT 7 (NOAA 15)      
1 25338U 98030A   20119.40469142  .00000045  00000-0  37445-4 0  9990
2 25338  98.7216 144.6991 0011263  53.1055 307.1155 14.25961053142108
METEOSAT-8 (MSG-1)      
1 27509U 02040B   20118.88425365  .00000143  00000-0  00000+0 0  9999
2 27509   6.6384  54.3000 0001358 332.8684 188.8345  1.00270697 64778
GPS BIIR-08             
1 27663U 03005A   20117.49530995 -.00000015  00000-0  00000+0 0  9993
2 27663  56.0913 304.0034 0113931  34.9411 325.3926  2.00554912126326
GPS BIIR-11             
1 28190U 04009A   20117.80062152 -.00000073  00000-0  00000+0 0  9998
2 28190  56.2777   4.7832 0091434  91.7004 283.2717  2.00562984118008
GPS BIIR-12             
1 28361U 04023A   20118.42367578  .00000041  00000-0  00000-0 0  9998
2 28361  54.0585 177.5121 0143385 234.5249 122.1734  2.00389512116093
GPS BIIR-13             
1 28474U 04045A   20118.64424601 -.00000042  00000-0  00000-0 0  9994
2 28474  54.9387  54.9394 0199978 266.4207 275.6332  2.00562528113471
SARSAT 10 (NOAA 18)     
1 28654U 05018A   20119.43682716  .00000090  00000-0  73157-4 0  9995
2 28654  99.0486 175.3863 0014340  16.7568 343.4074 14.12506125769948
GPS BIIR-14M            
1 28874U 05038A   20119.49395133 -.00000069  00000-0  00000+0 0  9990
2 28874  56.3829   2.0993 0134643 266.0168 272.5069  2.00562172106886
METEOSAT-9 (MSG-2)      
1 28912U 05049B   20119.11274354  .00000022  00000-0  00000-0 0  9994
2 28912   4.3196  70.3040 0001234 342.1970 208.1062  1.00266867 52560
GOES 13                 
1 29155U 06018A   20118.91622608  .00000043  00000-0  00000-0 0  9990
2 29155   0.2617 270.0781 0004248 299.5162  37.7497  1.00272728 20881
SARSAT 11 (METOP-A)     
1 29499U 06044A   20119.46039653 -.00000010  00000-0  14565-4 0  9993
2 29499  98.5278 167.9498 0001681  82.5370 337.8464 14.21496180701783
GPS BIIR-16M            
1 29601U 06052A   20118.80550273 -.00000006  00000-0  00000+0 0  9999
2 29601  56.0767 302.8713 0078943  64.6957 296.1198  2.00560210 98507
GPS BIIR-17M            
1 32260U 07047A   20118.11195460  .00000044  00000-0  00000+0 0  9997
2 32260  53.1831 172.9166 0120452  49.3526 311.7732  2.00563260 91863
GPS BIIR-18M            
1 32384U 07062A   20118.67803598 -.00000070  00000-0  00000+0 0  9990
2 32384  56.4776   2.8020 0011547 111.9329  66.7919  2.00573430 90611
SARSAT 12 (NOAA 19)     
1 33591U 09005A   20119.43716107  .00000048  00000-0  51242-4 0  9997
2 33591  99.1969 123.4821 0013406 212.5674 147.4671 14.12404935578337
GOES 14                 
1 35491U 09033A   20119.07257816 -.00000091  00000-0  00000-0 0  9997
2 35491   0.2012  97.8900 0008231 129.5092 271.0894  1.00271538 39655
GOES 15                 
1 36411U 10008A   20119.47081878  .00000057  00000-0  00000+0 0  9991
2 36411   0.2353 275.2467 0002111 131.6276 211.3359  1.00267548 37203
GLONASS-K 1             
1 37372U 11009A   20119.52915934 -.00000052  00000-0  00000+0 0  9991
2 37372  65.8497  29.4315 0008203 236.2670 333.7438  2.13107385 71342
GPS BIIF-2              
1 37753U 11036A   20119.47060278 -.00000031  00000-0  00000+0 0  9997
2 37753  56.1426  59.2427 0096012  43.0423 139.1664  2.00569238 64324
GSAT0101 (GALILEO-PFM)  
1 37846U 11060A   20119.09247811 -.00000061  00000-0  00000-0 0  9999
2 37846  56.5980  42.6678 0004509 347.7130  12.2781  1.70475479 52911
GSAT0102 (GALILEO-FM2)  
1 37847U 11060B   20117.54660465 -.00000063  00000-0  00000+0 0  9993
2 37847  56.5976  42.7094 0005605 326.0119 211.3082  1.70475633 53015
LUCH 5A                 
1 37951U 11074B   20119.29678331 -.00000042  00000-0  00000-0 0  9997
2 37951   3.1497 116.4387 0004281 301.7149  72.2953  1.00272365 30727
METEOSAT-10 (MSG-3)     
1 38552U 12035B   20119.30848181  .00000063  00000-0  00000+0 0  9998
2 38552   0.9962   8.7045 0000715 349.7935 338.4583  1.00269978 28745
SARSAT 13 (METOP-B)     
1 38771U 12049A   20119.44281578 -.00000009  00000-0  15753-4 0  9999
2 38771  98.6961 179.5003 0002014 122.8634 299.6165 14.21491161394919
GPS BIIF-3              
1 38833U 12053A   20119.21095379  .00000012  00000-0  00000+0 0  9997
2 38833  53.6649 235.3983 0094904  37.1997 323.4608  2.00565194 55384
GSAT0103 (GALILEO-FM3)  
1 38857U 12055A   20119.13471590  .00000062  00000-0  00000+0 0  9994
2 38857  54.9685 163.1655 0004827 266.3432  93.6834  1.70473757 46952
GSAT0104 (GALILEO-FM4)  
1 38858U 12055B   20119.06906725  .00000062  00000-0  00000-0 0  9991
2 38858  54.9693 163.1666 0003676 271.9598  88.0803  1.70473712 46955
GPS BIIF-4              
1 39166U 13023A   20118.07086637 -.00000070  00000-0  00000-0 0  9991
2 39166  56.0487 358.8204 0080988  29.8726 330.6371  2.00565341 50907
INSAT-3D                
1 39216U 13038B   20119.39484537 -.00000153  00000-0  00000+0 0  9991
2 39216   0.0489 337.5966 0001848  64.5297  38.9502  1.00269737 24836
GPS BIIF-5              
1 39533U 14008A   20119.07187565  .00000012  00000-0  00000+0 0  9990
2 39533  53.7835 240.8337 0045860 197.0102 162.8361  2.00565163 45280
LUCH 5V                 
1 39727U 14023A   20119.03839946 -.00000267  00000-0  00000-0 0  9999
2 39727   0.6090 325.2056 0003650  97.8279 261.9931  1.00274519540047
GPS BIIF-6              
1 39741U 14026A   20118.85513925 -.00000033  00000-0  00000+0 0  9993
2 39741  56.1133  58.7948 0021798 295.5625  64.2018  2.00581267 43567
GPS BIIF-7              
1 40105U 14045A   20116.94436177  .00000047  00000-0  00000+0 0  9995
2 40105  54.5847 178.0458 0013403 106.0142 254.2198  2.00554906 41976
GSAT0201 (GALILEO 5)    
1 40128U 14050A   20118.73422044 -.00000085  00000-0  00000-0 0  9997
2 40128  50.5748   3.3956 1664702  97.6398 281.5134  1.85518811 36764
GSAT0202 (GALILEO 6)    
1 40129U 14050B   20118.99814651 -.00000084  00000-0  00000-0 0  9994
2 40129  50.6130   2.4198 1662844  98.4735 280.6554  1.85519519 38908
GPS BIIF-8              
1 40294U 14068A   20117.31335802  .00000049  00000-0  00000-0 0  9997
2 40294  55.3187 118.9532 0026190  35.6748 324.5172  2.00575781 40227
GLONASS-K 2             
1 40315U 14075A   20119.18016917  .00000032  00000-0  00000-0 0  9991
2 40315  63.9108 268.5700 0015407 203.5878 194.7192  2.13098573 42108
GPS BIIF-9              
1 40534U 15013A   20119.44611931 -.00000002  00000-0  00000+0 0  9990
2 40534  54.2669 296.9259 0047013  10.3594 349.7295  2.00571267 37312
GSAT0203 (GALILEO 7)    
1 40544U 15017A   20118.87304600 -.00000061  00000-0  00000+0 0  9998
2 40544  56.3904  42.8148 0003653 282.5582  77.4025  1.70474539 31652
GSAT0204 (GALILEO 8)    
1 40545U 15017B   20119.24101907 -.00000061  00000-0  00000+0 0  9996
2 40545  56.3972  42.8202 0001098 279.6336  80.3561  1.70475069 31662
GPS BIIF-10             
1 40730U 15033A   20118.10819772 -.00000070  00000-0  00000+0 0  9990
2 40730  55.5664 358.0142 0053734 351.9270   8.0361  2.00565756 35045
METEOSAT-11 (MSG-4)     
1 40732U 15034A   20119.23852052 -.00000000  00000-0  00000-0 0  9990
2 40732   0.4723 215.4327 0000941 253.0750 193.7968  1.00275398 17572
GSAT0205 (GALILEO 9)    
1 40889U 15045A   20119.48419401  .00000002  00000-0  00000+0 0  9999
2 40889  56.1940 283.4734 0004332  31.8354 328.1620  1.70475251 28816
GSAT0206 (GALILEO 10)   
1 40890U 15045B   20116.77085642 -.00000008  00000-0  00000-0 0  9994
2 40890  56.1947 283.5446 0002631  35.6233 324.3557  1.70475363 28792
GPS BIIF-11             
1 41019U 15062A   20119.15680537  .00000058  00000-0  00000+0 0  9999
2 41019  55.3170 118.7048 0056751 211.2777 148.3983  2.00564403 32889
ELEKTRO-L 2             
1 41105U 15074A   20119.09852933 -.00000093  00000-0  00000-0 0  9993
2 41105   1.0802  97.9020 0002663 329.8995 260.2030  1.00271351 16047
GSAT0209 (GALILEO 12)   
1 41174U 15079A   20119.28942121  .00000062  00000-0  00000+0 0  9998
2 41174  54.9828 162.8585 0005741 301.6175  58.4075  1.70473703 27156
GSAT0208 (GALILEO 11)   
1 41175U 15079B   20118.92259759  .00000063  00000-0  00000-0 0  9999
2 41175  54.9816 162.8681 0004889 300.7392  59.2952  1.70473835 27153
GPS BIIF-12             
1 41328U 16007A   20118.74984051  .00000040  00000-0  00000-0 0  9996
2 41328  54.8217 178.4466 0040414 221.5461 138.2264  2.00559430 30936
GSAT0211 (GALILEO 14)   
1 41549U 16030A   20119.04476034  .00000001  00000-0  00000+0 0  9994
2 41549  56.3356 283.3332 0002298 346.4257  13.5374  1.70474995 24442
GSAT0210 (GALILEO 13)   
1 41550U 16030B   20119.33772884  .00000002  00000-0  00000+0 0  9991
2 41550  56.3347 283.3269 0000995 291.0825  68.8774  1.70475131 24441
INSAT-3DR               
1 41752U 16054A   20118.82341370 -.00000074  00000-0  00000-0 0  9997
2 41752   0.1522  92.7082 0011488 184.4136 309.5699  1.00271505 13330
GSAT0207 (GALILEO 15)   
1 41859U 16069A   20118.99578530  .00000062  00000-0  00000+0 0  9994
2 41859  54.6411 163.2419 0005679 290.7799  69.2417  1.70473686 21426
GSAT0212 (GALILEO 16)   
1 41860U 16069B   20118.26264524  .00000063  00000-0  00000+0 0  9992
2 41860  54.6386 163.2614 0004489 306.8054  53.2394  1.70473733 21438
GSAT0213 (GALILEO 17)   
1 41861U 16069C   20119.21510723  .00000061  00000-0  00000-0 0  9993
2 41861  54.6426 163.2385 0005053 273.4523  86.5714  1.70473808 21457
GSAT0214 (GALILEO 18)   
1 41862U 16069D   20118.18892700  .00000063  00000-0  00000-0 0  9999
2 41862  54.6393 163.2625 0004172 277.5927  82.4463  1.70473892 21428
GOES 16                 
1 41866U 16071A   20118.86096166 -.00000245  00000-0  00000-0 0  9996
2 41866   0.0130 288.3200 0000890 144.3164  18.4430  1.00270991 12646
GSAT-17                 
1 42815U 17040B   20118.86021674 -.00000255  00000-0  00000-0 0  9991
2 42815   0.0771  96.4905 0002845 211.6701 311.3159  1.00272979 10312
GSAT0215 (GALILEO 19)   
1 43055U 17079A   20118.67867585  .00000000  00000-0  00000-0 0  9995
2 43055  56.3092 283.1880 0000337 274.7249  85.2390  1.70474314 14779
GSAT0216 (GALILEO 20)   
1 43056U 17079B   20116.03853504 -.00000010  00000-0  00000+0 0  9991
2 43056  56.3129 283.2597 0002224 274.8924  85.0420  1.70474419 14717
GSAT0217 (GALILEO 21)   
1 43057U 17079C   20119.19152045  .00000002  00000-0  00000+0 0  9994
2 43057  56.3081 283.1741 0001914 300.0495  59.9013  1.70474291 14788
GSAT0218 (GALILEO 22)   
1 43058U 17079D   20118.82490773  .00000001  00000-0  00000-0 0  9997
2 43058  56.3092 283.1815 0002679 266.6595  93.2782  1.70474318 14807
GOES 17                 
1 43226U 18022A   20119.46396314  .00000100  00000-0  00000+0 0  9999
2 43226   0.0181 276.8696 0000441 106.8099 223.0426  1.00270978  7960
GSAT0221 (GALILEO 25)   
1 43564U 18060A   20118.72479554 -.00000061  00000-0  00000+0 0  9999
2 43564  56.7785  42.4328 0004852 293.9848  65.9665  1.70475566 10961
GSAT0222 (GALILEO 26)   
1 43565U 18060B   20118.35806259 -.00000062  00000-0  00000+0 0  9996
2 43565  56.7806  42.4421 0004845 302.1383  57.8159  1.70475602 10991
GSAT0219 (GALILEO 23)   
1 43566U 18060C   20118.57829757 -.00000061  00000-0  00000+0 0  9998
2 43566  56.7813  42.4377 0004406 299.2111  60.7466  1.70475481 10975
GSAT0220 (GALILEO 24)   
1 43567U 18060D   20118.79817120 -.00000061  00000-0  00000+0 0  9994
2 43567  56.7805  42.4330 0004564 300.1859  59.7710  1.70475532 10957
BEIDOU-3 M13            
1 43622U 18072A   20119.46706847  .00000070  00000-0  00000+0 0  9996
2 43622  55.1200 137.5993 0008408 283.8704 188.6754  1.86231664 10929
BEIDOU-3 M14            
1 43623U 18072B   20119.37348638  .00000069  00000-0  00000+0 0  9995
2 43623  55.1213 137.5935 0006911 303.0337 196.9700  1.86231724 10924
METEOR-M2 2             
1 44387U 19038A   20119.39747246 -.00000022  00000-0  92010-5 0  9994
2 44387  98.6153  80.4457 0002116  50.5255 309.6110 14.23678325 42412
